{"type": "FeatureCollection", "features": [ {"type": "Feature", "properties": {"norad_id": 54234, "name": "NOAA 21 (JPSS-2)", "group": "weather", "lat": -0.03640841930530302, "lon": -78.68284243190573, "alt_km": 828.6337031020375, "timestamp": "2025-12-10T23:33:12.473399+00:00", "meta": {"OBJECT_NAME": "NOAA 21 (JPSS-2)", "OBJECT_ID": "2022-150A", "EPOCH": "2025-12-10T15:05:43.222272", "MEAN_MOTION": 14.19523363, "ECCENTRICITY": 0.0002294, "INCLINATION": 98.7459, "RA_OF_ASC_NODE": 280.9636, "ARG_OF_PERICENTER": 42.0678, "MEAN_ANOMALY": 318.0674, "EPHEMERIS_TYPE": 0, "CLASSIFICATION_TYPE": "U", "NORAD_CAT_ID": 54234, "ELEMENT_SET_NO": 999, "REV_AT_EPOCH": 15979, "BSTAR": 0.00010946844, "MEAN_MOTION_DOT": 1.87e-06, "MEAN_MOTION_DDOT": 0}, "tle": {"line1": "1 54234U 22150A   25344.62897248  .00000187  00000+0  10947-3 0  9991", "line2": "2 54234  98.7459 280.9636 0002294  42.0678 318.0674 14.19523363159797"}}, "geometry": {"type": "Point", "coordinates": [-78.68284243190573, -0.03640841930530302]}}, {"type": "Feature", "properties": {"norad_id": 54743, "name": "METEOSAT-12 (MTG-I1)", "group": "weather", "lat": 0.5419936701250533, "lon": 73.00855225078814, "alt_km": 35794.96862353083, "timestamp": "2025-12-10T23:33:12.473410+00:00", "meta": {"OBJECT_NAME": "METEOSAT-12 (MTG-I1)", "OBJECT_ID": "2022-170C", "EPOCH": "2025-12-10T06:29:38.861952", "MEAN_MOTION": 1.00267149, "ECCENTRICITY": 0.00018354, "INCLINATION": 0.6844, "RA_OF_ASC_NODE": 23.1554, "ARG_OF_PERICENTER": 238.1267, "MEAN_ANOMALY": 275.1497, "EPHEMERIS_TYPE": 0, "CLASSIFICATION_TYPE": "U", "NORAD_CAT_ID": 54743, "ELEMENT_SET_NO": 999, "REV_AT_EPOCH": 1108, "BSTAR": 0, "MEAN_MOTION_DOT": -4e-08, "MEAN_MOTION_DDOT": 0}, "tle": {"line1": "1 54743U 22170C   25344.27058868 -.00000004  00000+0  00000+0 0  9990", "line2": "2 54743   0.6844  23.1554 0001835 238.1267 275.1497  1.00267149 11088"}}, "geometry": {"type": "Point", "coordinates": [73.00855225078814, 0.5419936701250533]}}, {"type": "Feature", "properties": {"norad_id": 55973, "name": "TIANMU-1 03", "group": "weather", "lat": -58.14423984407999, "lon": -44.67586865672091, "alt_km": 453.7976949305048, "timestamp": "2025-12-10T23:33:12.473420+00:00", "meta": {"OBJECT_NAME": "TIANMU-1 03", "OBJECT_ID": "2023-039A", "EPOCH": "2025-12-10T14:43:36.967584", "MEAN_MOTION": 15.40822592, "ECCENTRICITY": 0.0004456, "INCLINATION": 97.5111, "RA_OF_ASC_NODE": 147.2058, "ARG_OF_PERICENTER": 67.0128, "MEAN_ANOMALY": 293.1588, "EPHEMERIS_TYPE": 0, "CLASSIFICATION_TYPE": "U", "NORAD_CAT_ID": 55973, "ELEMENT_SET_NO": 999, "REV_AT_EPOCH": 15173, "BSTAR": 0.00056377224, "MEAN_MOTION_DOT": 0.00023071, "MEAN_MOTION_DDOT": 0}, "tle": {"line1": "1 55973U 23039A   25344.61362231  .00023071  00000+0  56377-3 0  9991", "line2": "2 55973  97.5111 147.2058 0004456  67.0128 293.1588 15.40822592151736"}}, "geometry": {"type": "Point", "coordinates": [-44.67586865672091, -58.14423984407999]}}, {"type": "Feature", "properties": {"norad_id": 55974, "name": "TIANMU-1 04", "group": "weather", "lat": -9.380193877412369, "lon": 148.02337911188468, "alt_km": 445.7311275637303, "timestamp": "2025-12-10T23:33:12.473428+00:00", "meta": {"OBJECT_NAME": "TIANMU-1 04", "OBJECT_ID": "2023-039B", "EPOCH": "2025-12-10T14:14:41.131968", "MEAN_MOTION": 15.41157031, "ECCENTRICITY": 0.00051389, "INCLINATION": 97.5043, "RA_OF_ASC_NODE": 146.3772, "ARG_OF_PERICENTER": 62.7665, "MEAN_ANOMALY": 297.4105, "EPHEMERIS_TYPE": 0, "CLASSIFICATION_TYPE": "U", "NORAD_CAT_ID": 55974, "ELEMENT_SET_NO": 999, "REV_AT_EPOCH": 15173, "BSTAR": 0.00053774937, "MEAN_MOTION_DOT": 0.00022247, "MEAN_MOTION_DDOT": 0}, "tle": {"line1": "1 55974U 23039B   25344.59353162  .00022247  00000+0  53775-3 0  9995", "line2": "2 55974  97.5043 146.3772 0005138  62.7665 297.4105 15.41157031151732"}}, "geometry": {"type": "Point", "coordinates": [148.02337911188468, -9.380193877412369]}}, {"type": "Feature", "properties": {"norad_id": 55975, "name": "TIANMU-1 05", "group": "weather", "lat": 24.632667768298578, "lon": 143.8003737098869, "alt_km": 441.59984619710485, "timestamp": "2025-12-10T23:33:12.473438+00:00", "meta": {"OBJECT_NAME": "TIANMU-1 05", "OBJECT_ID": "2023-039C", "EPOCH": "2025-12-10T14:05:38.412960", "MEAN_MOTION": 15.40780325, "ECCENTRICITY": 0.00043633, "INCLINATION": 97.509, "RA_OF_ASC_NODE": 146.863, "ARG_OF_PERICENTER": 84.097, "MEAN_ANOMALY": 276.0774, "EPHEMERIS_TYPE": 0, "CLASSIFICATION_TYPE": "U", "NORAD_CAT_ID": 55975, "ELEMENT_SET_NO": 999, "REV_AT_EPOCH": 15171, "BSTAR": 0.00053553253, "MEAN_MOTION_DOT": 0.00021877, "MEAN_MOTION_DDOT": 0}, "tle": {"line1": "1 55975U 23039C   25344.58725015  .00021877  00000+0  53553-3 0  9997", "line2": "2 55975  97.5090 146.8630 0004363  84.0970 276.0774 15.40780325151718"}}, "geometry": {"type": "Point", "coordinates": [143.8003737098869, 24.632667768298578]}}, {"type": "Feature", "properties": {"norad_id": 55976, "name": "TIANMU-1 06", "group": "weather", "lat": -21.643723470323273, "lon": 150.73215203487865, "alt_km": 448.4842782672704, "timestamp": "2025-12-10T23:33:12.473448+00:00", "meta": {"OBJECT_NAME": "TIANMU-1 06", "OBJECT_ID": "2023-039D", "EPOCH": "2025-12-10T14:17:55.296096", "MEAN_MOTION": 15.41209879, "ECCENTRICITY": 0.00047021, "INCLINATION": 97.51, "RA_OF_ASC_NODE": 147.335, "ARG_OF_PERICENTER": 79.7664, "MEAN_ANOMALY": 280.4112, "EPHEMERIS_TYPE": 0, "CLASSIFICATION_TYPE": "U", "NORAD_CAT_ID": 55976, "ELEMENT_SET_NO": 999, "REV_AT_EPOCH": 15173, "BSTAR": 0.00054375736, "MEAN_MOTION_DOT": 0.00022535, "MEAN_MOTION_DDOT": 0}, "tle": {"line1": "1 55976U 23039D   25344.59577889  .00022535  00000+0  54376-3 0  9999", "line2": "2 55976  97.5100 147.3350 0004702  79.7664 280.4112 15.41209879151732"}}, "geometry": {"type": "Point", "coordinates": [150.73215203487865, -21.643723470323273]}}, {"type": "Feature", "properties": {"norad_id": 56232, "name": "FENGYUN 3G", "group": "weather", "lat": -25.614874915451693, "lon": -147.2204419883203, "alt_km": 416.0450546889815, "timestamp": "2025-12-10T23:33:12.473458+00:00", "meta": {"OBJECT_NAME": "FENGYUN 3G", "OBJECT_ID": "2023-055A", "EPOCH": "2025-12-10T05:10:32.979072", "MEAN_MOTION": 15.53405628, "ECCENTRICITY": 0.000929, "INCLINATION": 49.9931, "RA_OF_ASC_NODE": 240.4781, "ARG_OF_PERICENTER": 136.4608, "MEAN_ANOMALY": 223.7095, "EPHEMERIS_TYPE": 0, "CLASSIFICATION_TYPE": "U", "NORAD_CAT_ID": 56232, "ELEMENT_SET_NO": 999, "REV_AT_EPOCH": 15063, "BSTAR": 0.00066182, "MEAN_MOTION_DOT": 0.00042561, "MEAN_MOTION_DDOT": 0}, "tle": {"line1": "1 56232U 23055A   25344.21565948  .00042561  00000+0  66182-3 0  9994", "line2": "2 56232  49.9931 240.4781 0009290 136.4608 223.7095 15.53405628150631"}}, "geometry": {"type": "Point", "coordinates": [-147.2204419883203, -25.614874915451693]}}, {"type": "Feature", "properties": {"norad_id": 57166, "name": "METEOR-M2 3", "group": "weather", "lat": -57.225668020619096, "lon": -155.1056788430644, "alt_km": 820.8916176393423, "timestamp": "2025-12-10T23:33:12.473467+00:00", "meta": {"OBJECT_NAME": "METEOR-M2 3", "OBJECT_ID": "2023-091A", "EPOCH": "2025-12-10T14:00:23.650848", "MEAN_MOTION": 14.24025756, "ECCENTRICITY": 0.00040318, "INCLINATION": 98.6381, "RA_OF_ASC_NODE": 38.1606, "ARG_OF_PERICENTER": 14.8889, "MEAN_ANOMALY": 345.2408, "EPHEMERIS_TYPE": 0, "CLASSIFICATION_TYPE": "U", "NORAD_CAT_ID": 57166, "ELEMENT_SET_NO": 999, "REV_AT_EPOCH": 12767, "BSTAR": 3.9136322e-05, "MEAN_MOTION_DOT": 4.6e-07, "MEAN_MOTION_DDOT": 0}, "tle": {"line1": "1 57166U 23091A   25344.58360707  .00000046  00000+0  39136-4 0  9999", "line2": "2 57166  98.6381  38.1606 0004031  14.8889 345.2408 14.24025756127677"}}, "geometry": {"type": "Point", "coordinates": [-155.1056788430644, -57.225668020619096]}}, {"type": "Feature", "properties": {"norad_id": 57399, "name": "TIANMU-1 07", "group": "weather", "lat": 51.401965525089935, "lon": -135.90472736997518, "alt_km": 474.1555072488736, "timestamp": "2025-12-10T23:33:12.473477+00:00", "meta": {"OBJECT_NAME": "TIANMU-1 07", "OBJECT_ID": "2023-101A", "EPOCH": "2025-12-10T13:33:57.267360", "MEAN_MOTION": 15.28019459, "ECCENTRICITY": 0.00056134, "INCLINATION": 97.2877, "RA_OF_ASC_NODE": 34.4627, "ARG_OF_PERICENTER": 87.115, "MEAN_ANOMALY": 273.0733, "EPHEMERIS_TYPE": 0, "CLASSIFICATION_TYPE": "U", "NORAD_CAT_ID": 57399, "ELEMENT_SET_NO": 999, "REV_AT_EPOCH": 13282, "BSTAR": 0.00041975253, "MEAN_MOTION_DOT": 0.00011411, "MEAN_MOTION_DDOT": 0}, "tle": {"line1": "1 57399U 23101A   25344.56524615  .00011411  00000+0  41975-3 0  9998", "line2": "2 57399  97.2877  34.4627 0005613  87.1150 273.0733 15.28019459132823"}}, "geometry": {"type": "Point", "coordinates": [-135.90472736997518, 51.401965525089935]}}, {"type": "Feature", "properties": {"norad_id": 57400, "name": "TIANMU-1 08", "group": "weather", "lat": -49.85000939823687, "lon": 43.39246587174971, "alt_km": 492.61243850322717, "timestamp": "2025-12-10T23:33:12.473486+00:00", "meta": {"OBJECT_NAME": "TIANMU-1 08", "OBJECT_ID": "2023-101B", "EPOCH": "2025-12-10T14:20:37.366944", "MEAN_MOTION": 15.28004469, "ECCENTRICITY": 0.00075724, "INCLINATION": 97.2866, "RA_OF_ASC_NODE": 34.2928, "ARG_OF_PERICENTER": 89.8128, "MEAN_ANOMALY": 270.398, "EPHEMERIS_TYPE": 0, "CLASSIFICATION_TYPE": "U", "NORAD_CAT_ID": 57400, "ELEMENT_SET_NO": 999, "REV_AT_EPOCH": 13282, "BSTAR": 0.00039436198, "MEAN_MOTION_DOT": 0.00010714, "MEAN_MOTION_DDOT": 0}, "tle": {"line1": "1 57400U 23101B   25344.59765471  .00010714  00000+0  39436-3 0  9995", "line2": "2 57400  97.2866  34.2928 0007572  89.8128 270.3980 15.28004469132825"}}, "geometry": {"type": "Point", "coordinates": [43.39246587174971, -49.85000939823687]}}]}